[{"OBJECT_NAME":"STARLINK-35277","OBJECT_ID":"2025-221K","EPOCH":"2026-03-09T11:50:14.254656","MEAN_MOTION":15.30160899,"ECCENTRICITY":0.00013524,"INCLINATION":53.1593,"RA_OF_ASC_NODE":89.2337,"ARG_OF_PERICENTER":79.5609,"MEAN_ANOMALY":280.5544,"EPHEMERIS_TYPE":0,"CLASSIFICATION_TYPE":"U","NORAD_CAT_ID":65832,"ELEMENT_SET_NO":999,"REV_AT_EPOCH":2605,"BSTAR":0.00086520701,"MEAN_MOTION_DOT":0.00025322,"MEAN_MOTION_DDOT":0},{"OBJECT_NAME":"COSMOS 249 DEB","OBJECT_ID":"1968-091CY","EPOCH":"2026-03-09T21:07:59.374848","MEAN_MOTION":14.52283222,"ECCENTRICITY":0.03386329,"INCLINATION":62.3952,"RA_OF_ASC_NODE":260.6441,"ARG_OF_PERICENTER":176.0549,"MEAN_ANOMALY":184.3323,"EPHEMERIS_TYPE":0,"CLASSIFICATION_TYPE":"U","NORAD_CAT_ID":15535,"ELEMENT_SET_NO":999,"REV_AT_EPOCH":94239,"BSTAR":0.0018935012,"MEAN_MOTION_DOT":0.00016406,"MEAN_MOTION_DDOT":0}]
